LIZZIESAT-2 (LS-2)      
1 62383U 24247G   26068.49140277  .00009388  00000+0  34517-3 0  9997
2 62383  44.9909 117.0823 0004092 327.5136  32.5495 15.28222796 67716
STARLINK-35636          
1 66160U 25240Q   26068.28988450  .00028418  00000+0  96814-3 0  9991
2 66160  53.1594  64.9254 0001259  85.3550 274.7594 15.30193151 21922
